CCSDS_OMM_VERS = 2.0
CREATION_DATE  = 
ORIGINATOR     = 

OBJECT_NAME    = STARLINK-35798
OBJECT_ID      = 2025-247AD
CENTER_NAME    = EARTH
REF_FRAME      = TEME
TIME_SYSTEM    = UTC
MEAN_ELEMENT_THEORY = SGP/SGP4

EPOCH          = 2025-11-25T19:03:18.133632
MEAN_MOTION    = 15.49347854
ECCENTRICITY   = .0002759
INCLINATION    = 53.1593
RA_OF_ASC_NODE = 317.0815
ARG_OF_PERICENTER = 70.0288
MEAN_ANOMALY   = 290.1018

EPHEMERIS_TYPE = 0
CLASSIFICATION_TYPE = U
NORAD_CAT_ID   = 66292
ELEMENT_SET_NO = 999
REV_AT_EPOCH   = 508
BSTAR          = .20998E-2
MEAN_MOTION_DOT = .118289E-2
MEAN_MOTION_DDOT = 0

CCSDS_OMM_VERS = 2.0
CREATION_DATE  = 
ORIGINATOR     = 

OBJECT_NAME    = LVM3 R/B
OBJECT_ID      = 2025-249A
CENTER_NAME    = EARTH
REF_FRAME      = TEME
TIME_SYSTEM    = UTC
MEAN_ELEMENT_THEORY = SGP/SGP4

EPOCH          = 2025-11-25T14:54:14.521824
MEAN_MOTION    = 3.13766273
ECCENTRICITY   = .6672049
INCLINATION    = 21.3464
RA_OF_ASC_NODE = 147.3191
ARG_OF_PERICENTER = 202.0793
MEAN_ANOMALY   = 104.8141

EPHEMERIS_TYPE = 0
CLASSIFICATION_TYPE = U
NORAD_CAT_ID   = 66310
ELEMENT_SET_NO = 999
REV_AT_EPOCH   = 74
BSTAR          = .12378E-2
MEAN_MOTION_DOT = .43913E-3
MEAN_MOTION_DDOT = .4783E-6

CCSDS_OMM_VERS = 2.0
CREATION_DATE  = 
ORIGINATOR     = 

OBJECT_NAME    = CMS-03 (GSAT-7R)
OBJECT_ID      = 2025-249B
CENTER_NAME    = EARTH
REF_FRAME      = TEME
TIME_SYSTEM    = UTC
MEAN_ELEMENT_THEORY = SGP/SGP4

EPOCH          = 2025-11-25T20:30:03.300768
MEAN_MOTION    = 1.00271615
ECCENTRICITY   = .0004502
INCLINATION    = 0.1843
RA_OF_ASC_NODE = 271.7050
ARG_OF_PERICENTER = 196.5478
MEAN_ANOMALY   = 357.8326

EPHEMERIS_TYPE = 0
CLASSIFICATION_TYPE = U
NORAD_CAT_ID   = 66311
ELEMENT_SET_NO = 999
REV_AT_EPOCH   = 31
BSTAR          = 0
MEAN_MOTION_DOT = -.239E-5
MEAN_MOTION_DDOT = 0

CCSDS_OMM_VERS = 2.0
CREATION_DATE  = 
ORIGINATOR     = 

OBJECT_NAME    = YAOGAN-46
OBJECT_ID      = 2025-250A
CENTER_NAME    = EARTH
REF_FRAME      = TEME
TIME_SYSTEM    = UTC
MEAN_ELEMENT_THEORY = SGP/SGP4

EPOCH          = 2025-11-19T17:03:07.460064
MEAN_MOTION    = 5.35115933
ECCENTRICITY   = .00492424
INCLINATION    = 20.0323
RA_OF_ASC_NODE = 106.9378
ARG_OF_PERICENTER = 131.7872
MEAN_ANOMALY   = 228.6447

EPHEMERIS_TYPE = 0
CLASSIFICATION_TYPE = U
NORAD_CAT_ID   = 66313
ELEMENT_SET_NO = 999
REV_AT_EPOCH   = 96
BSTAR          = 0
MEAN_MOTION_DOT = -.9E-7
MEAN_MOTION_DDOT = 0

CCSDS_OMM_VERS = 2.0
CREATION_DATE  = 
ORIGINATOR     = 

OBJECT_NAME    = SENTINEL-1D
OBJECT_ID      = 2025-251A
CENTER_NAME    = EARTH
REF_FRAME      = TEME
TIME_SYSTEM    = UTC
MEAN_ELEMENT_THEORY = SGP/SGP4

EPOCH          = 2025-11-25T18:59:39.165792
MEAN_MOTION    = 14.59751325
ECCENTRICITY   = .0001477
INCLINATION    = 98.1939
RA_OF_ASC_NODE = 335.0381
ARG_OF_PERICENTER = 180.0932
MEAN_ANOMALY   = 180.0267

EPHEMERIS_TYPE = 0
CLASSIFICATION_TYPE = U
NORAD_CAT_ID   = 66315
ELEMENT_SET_NO = 999
REV_AT_EPOCH   = 306
BSTAR          = .53348E-4
MEAN_MOTION_DOT = .208E-5
MEAN_MOTION_DDOT = 0

CCSDS_OMM_VERS = 2.0
CREATION_DATE  = 
ORIGINATOR     = 

OBJECT_NAME    = QPS-SAR-14 (YACHIHOKO-I)
OBJECT_ID      = 2025-252A
CENTER_NAME    = EARTH
REF_FRAME      = TEME
TIME_SYSTEM    = UTC
MEAN_ELEMENT_THEORY = SGP/SGP4

EPOCH          = 2025-11-25T20:41:56.067936
MEAN_MOTION    = 14.97441811
ECCENTRICITY   = .0007535
INCLINATION    = 42.0032
RA_OF_ASC_NODE = 167.8891
ARG_OF_PERICENTER = 30.5311
MEAN_ANOMALY   = 329.5951

EPHEMERIS_TYPE = 0
CLASSIFICATION_TYPE = U
NORAD_CAT_ID   = 66316
ELEMENT_SET_NO = 999
REV_AT_EPOCH   = 300
BSTAR          = .51658E-3
MEAN_MOTION_DOT = .5938E-4
MEAN_MOTION_DDOT = 0

CCSDS_OMM_VERS = 2.0
CREATION_DATE  = 
ORIGINATOR     = 

OBJECT_NAME    = ELECTRON R/B
OBJECT_ID      = 2025-252B
CENTER_NAME    = EARTH
REF_FRAME      = TEME
TIME_SYSTEM    = UTC
MEAN_ELEMENT_THEORY = SGP/SGP4

EPOCH          = 2025-11-25T17:31:25.836096
MEAN_MOTION    = 15.82783133
ECCENTRICITY   = .0158865
INCLINATION    = 41.9918
RA_OF_ASC_NODE = 156.2311
ARG_OF_PERICENTER = 16.3385
MEAN_ANOMALY   = 344.2511

EPHEMERIS_TYPE = 0
CLASSIFICATION_TYPE = U
NORAD_CAT_ID   = 66317
ELEMENT_SET_NO = 999
REV_AT_EPOCH   = 312
BSTAR          = .19547E-2
MEAN_MOTION_DOT = .1174167E-1
MEAN_MOTION_DDOT = .76562E-5

CCSDS_OMM_VERS = 2.0
CREATION_DATE  = 
ORIGINATOR     = 

OBJECT_NAME    = ELECTRON KICK STAGE R/B
OBJECT_ID      = 2025-252C
CENTER_NAME    = EARTH
REF_FRAME      = TEME
TIME_SYSTEM    = UTC
MEAN_ELEMENT_THEORY = SGP/SGP4

EPOCH          = 2025-11-25T12:49:46.232832
MEAN_MOTION    = 15.95893211
ECCENTRICITY   = .0125609
INCLINATION    = 41.9783
RA_OF_ASC_NODE = 156.4777
ARG_OF_PERICENTER = 168.7438
MEAN_ANOMALY   = 191.6276

EPHEMERIS_TYPE = 0
CLASSIFICATION_TYPE = U
NORAD_CAT_ID   = 66318
ELEMENT_SET_NO = 999
REV_AT_EPOCH   = 310
BSTAR          = .1993E-2
MEAN_MOTION_DOT = .199781E-1
MEAN_MOTION_DDOT = .76755E-5

CCSDS_OMM_VERS = 2.0
CREATION_DATE  = 
ORIGINATOR     = 

OBJECT_NAME    = STARLINK-35442
OBJECT_ID      = 2025-253A
CENTER_NAME    = EARTH
REF_FRAME      = TEME
TIME_SYSTEM    = UTC
MEAN_ELEMENT_THEORY = SGP/SGP4

EPOCH          = 2025-11-26T04:00:03.000096
MEAN_MOTION    = 15.54785490
ECCENTRICITY   = .000114
INCLINATION    = 43.0001
RA_OF_ASC_NODE = 81.6840
ARG_OF_PERICENTER = 276.2536
MEAN_ANOMALY   = 303.7176

EPHEMERIS_TYPE = 0
CLASSIFICATION_TYPE = U
NORAD_CAT_ID   = 66319
ELEMENT_SET_NO = 999
REV_AT_EPOCH   = 436
BSTAR          = -.3335E-1
MEAN_MOTION_DOT = -.2033741E-1
MEAN_MOTION_DDOT = 0

CCSDS_OMM_VERS = 2.0
CREATION_DATE  = 
ORIGINATOR     = 

OBJECT_NAME    = STARLINK-34616
OBJECT_ID      = 2025-253B
CENTER_NAME    = EARTH
REF_FRAME      = TEME
TIME_SYSTEM    = UTC
MEAN_ELEMENT_THEORY = SGP/SGP4

EPOCH          = 2025-11-26T04:00:03.000096
MEAN_MOTION    = 15.54793270
ECCENTRICITY   = .0001154
INCLINATION    = 42.9998
RA_OF_ASC_NODE = 81.6785
ARG_OF_PERICENTER = 273.1605
MEAN_ANOMALY   = 308.7247

EPHEMERIS_TYPE = 0
CLASSIFICATION_TYPE = U
NORAD_CAT_ID   = 66320
ELEMENT_SET_NO = 999
REV_AT_EPOCH   = 447
BSTAR          = -.33541E-1
MEAN_MOTION_DOT = -.2044656E-1
MEAN_MOTION_DDOT = 0

CCSDS_OMM_VERS = 2.0
CREATION_DATE  = 
ORIGINATOR     = 

OBJECT_NAME    = STARLINK-34615
OBJECT_ID      = 2025-253C
CENTER_NAME    = EARTH
REF_FRAME      = TEME
TIME_SYSTEM    = UTC
MEAN_ELEMENT_THEORY = SGP/SGP4

EPOCH          = 2025-11-26T04:00:03.000096
MEAN_MOTION    = 15.61814917
ECCENTRICITY   = .0002528
INCLINATION    = 42.9996
RA_OF_ASC_NODE = 81.6343
ARG_OF_PERICENTER = 318.7478
MEAN_ANOMALY   = 281.0086

EPHEMERIS_TYPE = 0
CLASSIFICATION_TYPE = U
NORAD_CAT_ID   = 66321
ELEMENT_SET_NO = 999
REV_AT_EPOCH   = 431
BSTAR          = .66811E-2
MEAN_MOTION_DOT = .64491E-2
MEAN_MOTION_DDOT = 0

CCSDS_OMM_VERS = 2.0
CREATION_DATE  = 
ORIGINATOR     = 

OBJECT_NAME    = STARLINK-35292
OBJECT_ID      = 2025-253D
CENTER_NAME    = EARTH
REF_FRAME      = TEME
TIME_SYSTEM    = UTC
MEAN_ELEMENT_THEORY = SGP/SGP4

EPOCH          = 2025-11-25T08:00:03.000384
MEAN_MOTION    = 15.58538813
ECCENTRICITY   = .00013397
INCLINATION    = 42.9997
RA_OF_ASC_NODE = 86.5727
ARG_OF_PERICENTER = 267.2807
MEAN_ANOMALY   = 328.5633

EPHEMERIS_TYPE = 0
CLASSIFICATION_TYPE = U
NORAD_CAT_ID   = 66322
ELEMENT_SET_NO = 999
REV_AT_EPOCH   = 413
BSTAR          = -.29294757E-1
MEAN_MOTION_DOT = -.2055164E-1
MEAN_MOTION_DDOT = 0

